{"epoch":1784710044,"count":18256,"objects":[{"id":"48268","name":"PNEO3","type":"PAYLOAD","l1":"1 48268U 21034A   26202.62719339  .00000996  00000-0  13321-3 0  9997","l2":"2 48268  97.8936 276.8985 0001374  99.9954 260.1414 14.81664203282754"},{"id":"49070","name":"PNEO4","type":"PAYLOAD","l1":"1 49070U 21073E   26202.86352623  .00001093  00000-0  14552-3 0  9993","l2":"2 49070  97.8942 277.1276 0001353  99.6678 260.4687 14.81673902266503"}]}